QIANFAN-33              
1 61566U 24185Q   25325.83927020  .00000500  00000+0  35200-3 0  9999
2 61566  88.9795  81.1334 0007937  45.3365 314.8458 13.96528546 66244
QIANFAN-34              
1 61567U 24185R   25325.81900231  .00000551  00000+0  35096-3 0  9992
2 61567  88.9771  80.7275 0007140  54.4065 305.7780 14.02278947 66424
QIANFAN-35              
1 61568U 24185S   25325.81486051  .00000897  00000+0  35652-3 0  9993
2 61568  88.9799  79.3312 0006451  13.7400 346.3969 14.27915259 67192
QIANFAN-36              
1 61569U 24185T   25325.85254878  .00000225  00000+0  30618-3 0  9990
2 61569  88.9778  83.2163 0007775 103.3297 256.8724 13.55578340 65095
QIANFAN-37              
1 62238U 24232B   25325.81007044  .00000209  00000+0  30532-3 0  9991
2 62238  89.0038  43.4390 0002427 120.2987 239.8405 13.50985424 96342
QIANFAN-38              
1 62239U 24232C   25325.83471113  .00000211  00000+0  30826-3 0  9995
2 62239  89.0045  43.3509 0012960 251.2972 108.6773 13.50974680 96404
QIANFAN-39              
1 62240U 24232D   25325.78428745  .00000682  00000+0  28306-3 0  9996
2 62240  89.0036  39.7031 0017826 142.2701 217.9746 14.25361711 98404
QIANFAN-40              
1 62241U 24232E   25325.86762347  .00000192  00000+0  27880-3 0  9997
2 62241  89.0072  42.9264 0011846 259.8942 100.0873 13.50974256 96779
